STARLINK-36461          
1 67316U 26002M   26031.83335647  .00122369  00000+0  20656-2 0  9997
2 67316  42.9998 174.5769 0001696 278.8842 267.1485 15.50492205  5658
STARLINK-36450          
1 67317U 26002N   26031.83335647  .00120364  00000+0  20321-2 0  9990
2 67317  42.9996 174.5727 0001664 280.3422 267.6048 15.50495322  5651
STARLINK-36498          
1 67318U 26002P   26031.83335647  .00123474  00000+0  20837-2 0  9998
2 67318  43.0000 174.5621 0001991 279.8412 271.9375 15.50494468  5558
STARLINK-36470          
1 67319U 26002Q   26031.83335647  .00121535  00000+0  20517-2 0  9990
2 67319  42.9996 174.5677 0001606 277.8238 272.0445 15.50492631  5559
STARLINK-36500          
1 67320U 26002R   26031.83335647  .00125114  00000+0  21111-2 0  9990
2 67320  42.9996 174.5592 0001631 277.1010 276.5979 15.50491699  5550
STARLINK-36462          
1 67321U 26002S   26031.83335647  .00119009  00000+0  20097-2 0  9999
2 67321  42.9996 174.5484 0001654 282.7987 274.7353 15.50494384  5494
STARLINK-36434          
1 67322U 26002T   26031.83335647  .00119399  00000+0  20160-2 0  9993
2 67322  42.9995 174.5538 0001587 281.2615 274.3495 15.50497360  5491
STARLINK-36497          
1 67323U 26002U   26031.83335647  .00121312  00000+0  20479-2 0  9995
2 67323  42.9996 174.5438 0002159 281.4792 277.9715 15.50494295  5551
STARLINK-36471          
1 67324U 26002V   26031.83335647  .00129143  00000+0  21776-2 0  9997
2 67324  42.9997 174.5347 0002080 283.1043 280.1748 15.50493325  5491
STARLINK-36473          
1 67325U 26002W   26031.83335647  .00121158  00000+0  20454-2 0  9998
2 67325  42.9996 174.5389 0002111 284.6499 276.7213 15.50492935  5655
STARLINK-36430          
1 67326U 26002X   26031.83335647  .00012796  00000+0  22374-3 0  9990
2 67326  42.9997 174.5235 0002122 284.0215 283.0708 15.50558762  5650
STARLINK-36501          
1 67327U 26002Y   26031.83335647  .00125225  00000+0  21127-2 0  9997
2 67327  42.9997 174.5294 0002196 282.6423 282.5561 15.50493674  5495
