CCSDS_OMM_VERS = 2.0
CREATION_DATE  = 
ORIGINATOR     = 

OBJECT_NAME    = STARLINK-36461
OBJECT_ID      = 2026-002M
CENTER_NAME    = EARTH
REF_FRAME      = TEME
TIME_SYSTEM    = UTC
MEAN_ELEMENT_THEORY = SGP/SGP4

EPOCH          = 2026-01-31T20:00:01.999008
MEAN_MOTION    = 15.50492205
ECCENTRICITY   = .0001696
INCLINATION    = 42.9998
RA_OF_ASC_NODE = 174.5769
ARG_OF_PERICENTER = 278.8842
MEAN_ANOMALY   = 267.1485

EPHEMERIS_TYPE = 0
CLASSIFICATION_TYPE = U
NORAD_CAT_ID   = 67316
ELEMENT_SET_NO = 999
REV_AT_EPOCH   = 565
BSTAR          = .20656E-2
MEAN_MOTION_DOT = .122369E-2
MEAN_MOTION_DDOT = 0

CCSDS_OMM_VERS = 2.0
CREATION_DATE  = 
ORIGINATOR     = 

OBJECT_NAME    = STARLINK-36450
OBJECT_ID      = 2026-002N
CENTER_NAME    = EARTH
REF_FRAME      = TEME
TIME_SYSTEM    = UTC
MEAN_ELEMENT_THEORY = SGP/SGP4

EPOCH          = 2026-01-31T20:00:01.999008
MEAN_MOTION    = 15.50495322
ECCENTRICITY   = .0001664
INCLINATION    = 42.9996
RA_OF_ASC_NODE = 174.5727
ARG_OF_PERICENTER = 280.3422
MEAN_ANOMALY   = 267.6048

EPHEMERIS_TYPE = 0
CLASSIFICATION_TYPE = U
NORAD_CAT_ID   = 67317
ELEMENT_SET_NO = 999
REV_AT_EPOCH   = 565
BSTAR          = .20321E-2
MEAN_MOTION_DOT = .120364E-2
MEAN_MOTION_DDOT = 0

CCSDS_OMM_VERS = 2.0
CREATION_DATE  = 
ORIGINATOR     = 

OBJECT_NAME    = STARLINK-36498
OBJECT_ID      = 2026-002P
CENTER_NAME    = EARTH
REF_FRAME      = TEME
TIME_SYSTEM    = UTC
MEAN_ELEMENT_THEORY = SGP/SGP4

EPOCH          = 2026-01-31T20:00:01.999008
MEAN_MOTION    = 15.50494468
ECCENTRICITY   = .0001991
INCLINATION    = 43.0000
RA_OF_ASC_NODE = 174.5621
ARG_OF_PERICENTER = 279.8412
MEAN_ANOMALY   = 271.9375

EPHEMERIS_TYPE = 0
CLASSIFICATION_TYPE = U
NORAD_CAT_ID   = 67318
ELEMENT_SET_NO = 999
REV_AT_EPOCH   = 555
BSTAR          = .20837E-2
MEAN_MOTION_DOT = .123474E-2
MEAN_MOTION_DDOT = 0

CCSDS_OMM_VERS = 2.0
CREATION_DATE  = 
ORIGINATOR     = 

OBJECT_NAME    = STARLINK-36470
OBJECT_ID      = 2026-002Q
CENTER_NAME    = EARTH
REF_FRAME      = TEME
TIME_SYSTEM    = UTC
MEAN_ELEMENT_THEORY = SGP/SGP4

EPOCH          = 2026-01-31T20:00:01.999008
MEAN_MOTION    = 15.50492631
ECCENTRICITY   = .0001606
INCLINATION    = 42.9996
RA_OF_ASC_NODE = 174.5677
ARG_OF_PERICENTER = 277.8238
MEAN_ANOMALY   = 272.0445

EPHEMERIS_TYPE = 0
CLASSIFICATION_TYPE = U
NORAD_CAT_ID   = 67319
ELEMENT_SET_NO = 999
REV_AT_EPOCH   = 555
BSTAR          = .20517E-2
MEAN_MOTION_DOT = .121535E-2
MEAN_MOTION_DDOT = 0

CCSDS_OMM_VERS = 2.0
CREATION_DATE  = 
ORIGINATOR     = 

OBJECT_NAME    = STARLINK-36500
OBJECT_ID      = 2026-002R
CENTER_NAME    = EARTH
REF_FRAME      = TEME
TIME_SYSTEM    = UTC
MEAN_ELEMENT_THEORY = SGP/SGP4

EPOCH          = 2026-01-31T20:00:01.999008
MEAN_MOTION    = 15.50491699
ECCENTRICITY   = .0001631
INCLINATION    = 42.9996
RA_OF_ASC_NODE = 174.5592
ARG_OF_PERICENTER = 277.1010
MEAN_ANOMALY   = 276.5979

EPHEMERIS_TYPE = 0
CLASSIFICATION_TYPE = U
NORAD_CAT_ID   = 67320
ELEMENT_SET_NO = 999
REV_AT_EPOCH   = 555
BSTAR          = .21111E-2
MEAN_MOTION_DOT = .125114E-2
MEAN_MOTION_DDOT = 0

CCSDS_OMM_VERS = 2.0
CREATION_DATE  = 
ORIGINATOR     = 

OBJECT_NAME    = STARLINK-36462
OBJECT_ID      = 2026-002S
CENTER_NAME    = EARTH
REF_FRAME      = TEME
TIME_SYSTEM    = UTC
MEAN_ELEMENT_THEORY = SGP/SGP4

EPOCH          = 2026-01-31T20:00:01.999008
MEAN_MOTION    = 15.50494384
ECCENTRICITY   = .0001654
INCLINATION    = 42.9996
RA_OF_ASC_NODE = 174.5484
ARG_OF_PERICENTER = 282.7987
MEAN_ANOMALY   = 274.7353

EPHEMERIS_TYPE = 0
CLASSIFICATION_TYPE = U
NORAD_CAT_ID   = 67321
ELEMENT_SET_NO = 999
REV_AT_EPOCH   = 549
BSTAR          = .20097E-2
MEAN_MOTION_DOT = .119009E-2
MEAN_MOTION_DDOT = 0

CCSDS_OMM_VERS = 2.0
CREATION_DATE  = 
ORIGINATOR     = 

OBJECT_NAME    = STARLINK-36434
OBJECT_ID      = 2026-002T
CENTER_NAME    = EARTH
REF_FRAME      = TEME
TIME_SYSTEM    = UTC
MEAN_ELEMENT_THEORY = SGP/SGP4

EPOCH          = 2026-01-31T20:00:01.999008
MEAN_MOTION    = 15.50497360
ECCENTRICITY   = .0001587
INCLINATION    = 42.9995
RA_OF_ASC_NODE = 174.5538
ARG_OF_PERICENTER = 281.2615
MEAN_ANOMALY   = 274.3495

EPHEMERIS_TYPE = 0
CLASSIFICATION_TYPE = U
NORAD_CAT_ID   = 67322
ELEMENT_SET_NO = 999
REV_AT_EPOCH   = 549
BSTAR          = .2016E-2
MEAN_MOTION_DOT = .119399E-2
MEAN_MOTION_DDOT = 0

CCSDS_OMM_VERS = 2.0
CREATION_DATE  = 
ORIGINATOR     = 

OBJECT_NAME    = STARLINK-36497
OBJECT_ID      = 2026-002U
CENTER_NAME    = EARTH
REF_FRAME      = TEME
TIME_SYSTEM    = UTC
MEAN_ELEMENT_THEORY = SGP/SGP4

EPOCH          = 2026-01-31T20:00:01.999008
MEAN_MOTION    = 15.50494295
ECCENTRICITY   = .0002159
INCLINATION    = 42.9996
RA_OF_ASC_NODE = 174.5438
ARG_OF_PERICENTER = 281.4792
MEAN_ANOMALY   = 277.9715

EPHEMERIS_TYPE = 0
CLASSIFICATION_TYPE = U
NORAD_CAT_ID   = 67323
ELEMENT_SET_NO = 999
REV_AT_EPOCH   = 555
BSTAR          = .20479E-2
MEAN_MOTION_DOT = .121312E-2
MEAN_MOTION_DDOT = 0

CCSDS_OMM_VERS = 2.0
CREATION_DATE  = 
ORIGINATOR     = 

OBJECT_NAME    = STARLINK-36471
OBJECT_ID      = 2026-002V
CENTER_NAME    = EARTH
REF_FRAME      = TEME
TIME_SYSTEM    = UTC
MEAN_ELEMENT_THEORY = SGP/SGP4

EPOCH          = 2026-01-31T20:00:01.999008
MEAN_MOTION    = 15.50493325
ECCENTRICITY   = .000208
INCLINATION    = 42.9997
RA_OF_ASC_NODE = 174.5347
ARG_OF_PERICENTER = 283.1043
MEAN_ANOMALY   = 280.1748

EPHEMERIS_TYPE = 0
CLASSIFICATION_TYPE = U
NORAD_CAT_ID   = 67324
ELEMENT_SET_NO = 999
REV_AT_EPOCH   = 549
BSTAR          = .21776E-2
MEAN_MOTION_DOT = .129143E-2
MEAN_MOTION_DDOT = 0

CCSDS_OMM_VERS = 2.0
CREATION_DATE  = 
ORIGINATOR     = 

OBJECT_NAME    = STARLINK-36473
OBJECT_ID      = 2026-002W
CENTER_NAME    = EARTH
REF_FRAME      = TEME
TIME_SYSTEM    = UTC
MEAN_ELEMENT_THEORY = SGP/SGP4

EPOCH          = 2026-01-31T20:00:01.999008
MEAN_MOTION    = 15.50492935
ECCENTRICITY   = .0002111
INCLINATION    = 42.9996
RA_OF_ASC_NODE = 174.5389
ARG_OF_PERICENTER = 284.6499
MEAN_ANOMALY   = 276.7213

EPHEMERIS_TYPE = 0
CLASSIFICATION_TYPE = U
NORAD_CAT_ID   = 67325
ELEMENT_SET_NO = 999
REV_AT_EPOCH   = 565
BSTAR          = .20454E-2
MEAN_MOTION_DOT = .121158E-2
MEAN_MOTION_DDOT = 0

CCSDS_OMM_VERS = 2.0
CREATION_DATE  = 
ORIGINATOR     = 

OBJECT_NAME    = STARLINK-36430
OBJECT_ID      = 2026-002X
CENTER_NAME    = EARTH
REF_FRAME      = TEME
TIME_SYSTEM    = UTC
MEAN_ELEMENT_THEORY = SGP/SGP4

EPOCH          = 2026-01-31T20:00:01.999008
MEAN_MOTION    = 15.50558762
ECCENTRICITY   = .0002122
INCLINATION    = 42.9997
RA_OF_ASC_NODE = 174.5235
ARG_OF_PERICENTER = 284.0215
MEAN_ANOMALY   = 283.0708

EPHEMERIS_TYPE = 0
CLASSIFICATION_TYPE = U
NORAD_CAT_ID   = 67326
ELEMENT_SET_NO = 999
REV_AT_EPOCH   = 565
BSTAR          = .22374E-3
MEAN_MOTION_DOT = .12796E-3
MEAN_MOTION_DDOT = 0

CCSDS_OMM_VERS = 2.0
CREATION_DATE  = 
ORIGINATOR     = 

OBJECT_NAME    = STARLINK-36501
OBJECT_ID      = 2026-002Y
CENTER_NAME    = EARTH
REF_FRAME      = TEME
TIME_SYSTEM    = UTC
MEAN_ELEMENT_THEORY = SGP/SGP4

EPOCH          = 2026-01-31T20:00:01.999008
MEAN_MOTION    = 15.50493674
ECCENTRICITY   = .0002196
INCLINATION    = 42.9997
RA_OF_ASC_NODE = 174.5294
ARG_OF_PERICENTER = 282.6423
MEAN_ANOMALY   = 282.5561

EPHEMERIS_TYPE = 0
CLASSIFICATION_TYPE = U
NORAD_CAT_ID   = 67327
ELEMENT_SET_NO = 999
REV_AT_EPOCH   = 549
BSTAR          = .21127E-2
MEAN_MOTION_DOT = .125225E-2
MEAN_MOTION_DDOT = 0

